E-ST@R-II               
1 41459U 16025D   22327.76774771  .00012073  00000+0  47204-3 0  9991
2 41459  98.1917 145.3040 0134945  87.3353 274.3309 15.17886600361620
AAUSAT 4                
1 41460U 16025E   22327.79659104  .00020002  00000+0  64006-3 0  9998
2 41460  98.1784 153.2438 0108979  56.7639 316.9823 15.26771955362180
BEESAT-4                
1 41619U 16040W   22327.87240367  .00014987  00000+0  42265-3 0  9995
2 41619  97.1958  14.5526 0006387 262.2160  97.8360 15.36480624345158
RAVAN                   
1 41849U 16067B   22327.88169876  .00004243  00000+0  32803-3 0  9996
2 41849  98.0122 109.7234 0017227 158.5744 201.6205 15.01968599329912
CELTEE 1                
1 41850U 16067C   22327.80782968  .00002640  00000+0  22140-3 0  9995
2 41850  98.0220 104.1155 0009105 148.0151 212.1625 14.99265835329626
OPTICUBE 04             
1 41851U 16067D   22327.60489188  .00002017  00000+0  17469-3 0  9998
2 41851  98.0200 102.7351 0009097 158.7174 201.4428 14.98307898329537
AEROCUBE 8D             
1 41852U 16067E   22327.80376328  .00003006  00000+0  25132-3 0  9997
2 41852  98.0190 103.0995 0009772 152.4575 207.7166 14.99269990329562
AEROCUBE 8C             
1 41853U 16067F   22327.65443695  .00002788  00000+0  23375-3 0  9996
2 41853  98.0145 102.7495 0011135 163.1579 197.0015 14.99223956329536
PROMETHEUS 2-1          
1 41854U 16067G   22327.80906003  .00004580  00000+0  36248-3 0  9996
2 41854  98.0328 104.4061 0016742 178.0329 182.0963 15.01034099329634
PROMETHEUS 2-3          
1 41855U 16067H   22327.66680848  .00004888  00000+0  38687-3 0  9997
2 41855  98.0311 104.3148 0012873 197.6510 162.4267 15.01040079329614
INS-1B                  
1 41954U 17008G   22327.71630215  .00013384  00000+0  37746-3 0  9998
2 41954  97.2374  24.5846 0007301  36.0736 324.1000 15.36501115321152
BGUSAT                  
1 41999U 17008BD  22327.71838350  .00053275  00000+0  76748-3 0  9995
2 41999  97.2623  38.6851 0002840  20.6050 339.5319 15.55859401321250
DIDO-2                  
1 42000U 17008BE  22327.71469317  .00006289  00000+0  21157-3 0  9999
2 42000  97.2371  23.0483 0008367  59.8303 300.3766 15.31110755320413
PEASSS                  
1 42015U 17008BV  22327.68945934  .00011084  00000+0  31871-3 0  9998
2 42015  97.2438  27.8641 0005772  53.8611 306.3167 15.35950722321179
AL-FARABI 1             
1 42016U 17008BW  22327.72060841  .00018203  00000+0  44448-3 0  9993
2 42016  97.2508  31.9123 0004632  51.5341 308.6321 15.40887273321519
NAYIF-1 (EO-88)         
1 42017U 17008BX  22327.13298624  .00018491  00000+0  44808-3 0  9990
2 42017  97.2502  31.3670 0004878  49.9985 310.1690 15.41115096321450
UCLSAT                  
1 42765U 17036A   22327.54270664  .00011628  00000+0  35328-3 0  9992
2 42765  97.1775   5.4602 0010238 110.0959 250.1387 15.34161505302202
LITUANICASAT-2          
1 42768U 17036D   22327.86884041  .00037064  00000+0  74247-3 0  9995
2 42768  97.1836  10.5871 0009768  90.2266 270.0103 15.46596464301782
AALTO-1                 
1 42775U 17036L   22327.31442995  .00006075  00000+0  22401-3 0  9994
2 42775  97.1799 359.1916 0013468 118.2101 242.0501 15.28064282301016
URSA MAIOR              
1 42776U 17036M   22327.35700699  .00006544  00000+0  23513-3 0  9993
2 42776  97.1812   0.1445 0013101 116.4079 243.8507 15.28893248301063
COMPASS 2               
1 42777U 17036N   22327.84052720  .00020132  00000+0  51265-3 0  9997
2 42777  97.1837   8.8522 0010147  96.6522 263.5879 15.39544777301604
DIAMOND RED             
1 42783U 17036U   22327.83396803  .00007839  00000+0  26742-3 0  9997
2 42783  97.1810   3.2688 0011392 117.3042 242.9361 15.30541449301291
PEGASUS                 
1 42784U 17036V   22327.11570829  .00010459  00000+0  33137-3 0  9999
2 42784  97.1804   4.1127 0010922 115.5673 244.6700 15.32847265301283
DIAMOND GREEN           
1 42785U 17036W   22327.83312355  .00008219  00000+0  27948-3 0  9991
2 42785  97.1815   3.3367 0011205 118.9299 241.3068 15.30633320301362
DIAMOND BLUE            
1 42786U 17036X   22327.83271024  .00008241  00000+0  28049-3 0  9997
2 42786  97.1810   3.3274 0011257 118.8936 241.3436 15.30601870301363
NUDTSAT                 
1 42787U 17036Y   22327.96031844  .00027839  00000+0  66686-3 0  9999
2 42787  97.1815  10.5316 0008949  97.3149 262.9115 15.41352864301593
SUCHAI                  
1 42788U 17036Z   22327.86323533  .00014036  00000+0  40505-3 0  9995
2 42788  97.1798   6.9920 0010147 106.8793 253.3565 15.35743582301607
SKCUBE                  
1 42789U 17036AA  22327.69980938  .00011445  00000+0  34494-3 0  9996
2 42789  97.1798   6.0699 0010294 108.6750 251.5611 15.34419886301459
VZLUSAT-1               
1 42790U 17036AB  22327.86068332  .00021981  00000+0  53361-3 0  9992
2 42790  97.1809  10.3531 0008733  98.7899 261.4337 15.40996818301722
ROBUSTA 1B              
1 42792U 17036AD  22327.84669160  .00013303  00000+0  38918-3 0  9998
2 42792  97.1794   6.9287 0009773 107.5707 252.6605 15.35328493301539
CICERO 6                
1 42793U 17036AE  22327.08941809  .00006784  00000+0  23459-3 0  9997
2 42793  97.1790   3.0105 0010068 119.2471 240.9778 15.30164229301306
CORVUS BC2              
1 42846U 17042X   22327.38006683  .00001203  00000+0  11960-3 0  9993
2 42846  97.4015 175.5711 0009180 174.2997 185.8330 14.93374517291998
CORVUS BC1              
1 42847U 17042Y   22327.85249637  .00001269  00000+0  12558-3 0  9990
2 42847  97.4015 176.3470 0008963 171.5531 188.5842 14.93453440292073
MIRATA                  
1 43015U 17073C   22327.64486553  .00007861  00000+0  54890-3 0  9998
2 43015  97.6553 217.0868 0231803  17.2259 343.6657 14.86350730270892
MAKERSAT 0              
1 43016U 17073D   22327.68694939  .00005576  00000+0  40361-3 0  9991
2 43016  97.6560 216.2670 0241074  22.9337 338.2428 14.83908860270799
CORVUS BC3              
1 43118U 18004H   22327.78330150  .00006509  00000+0  22638-3 0  9996
2 43118  97.3483  38.5420 0009439 150.3710 209.8067 15.30013881270558
MICROMAS-2A             
1 43131U 18004W   22327.79247914  .00031268  00000+0  63686-3 0  9995
2 43131  97.3630  48.2391 0005573 133.6618 226.5094 15.46182166271106
SPACEBEE-4              
1 43139U 18004AE  22327.74032173  .00258848  00000+0  14968-2 0  9990
2 43139  97.3677  56.8111 0002340 247.3060 112.7959 15.77887341271593
CICERO 7                
1 43143U 18004AJ  22327.75125676  .00010966  00000+0  28509-3 0  9991
2 43143  97.3627  46.6844 0006112 139.3463 220.8239 15.39088505271024
GOMX-4B                 
1 43196U 18015E   22327.35205082  .00006844  00000+0  24205-3 0  9996
2 43196  97.5544 108.6649 0015846 212.8358 147.1898 15.29385619267424
GOMX-4A                 
1 43197U 18015F   22327.86811348  .00008887  00000+0  29392-3 0  9992
2 43197  97.5532 110.4463 0015587 209.0503 304.2815 15.31474869267591
AEROCUBE 12A            
1 43556U 18046C   22327.69236746  .00024029  00000+0  47284-3 0  9995
2 43556  51.6332 123.8574 0007764 250.9764 109.0383 15.47092813243892
AEROCUBE 12B            
1 43557U 18046D   22326.74131550  .00017715  00000+0  40107-3 0  9999
2 43557  51.6347 136.1618 0007757 239.4952 120.5268 15.43169495243592
SURFSAT                 
1 43614U 18070B   22327.30532830  .00079604  00000+0  54980-3 0  9998
2 43614  93.0017 166.6938 0008975  91.0320 269.1982 15.74266997235860
CP7 (DAVE)              
1 43615U 18070C   22327.53373230  .00062948  00000+0  51949-3 0  9996
2 43615  93.0015 166.4044 0009844  95.0902 265.1492 15.70073706235830
CUBEBEL-1 (BSUSAT-1)    
1 43666U 18083E   22327.82043510  .00011137  00000+0  42830-3 0  9996
2 43666  97.4075 354.8962 0013583 126.2181 337.8607 15.26485615225766
CICERO 10               
1 43690U 18088A   22327.77813485  .00008229  00000+0  30143-3 0  9990
2 43690  85.0387 210.3946 0009979 282.9860  77.0271 15.27798459224053
IRVINE01                
1 43693U 18088D   22327.71107839  .00073223  00000+0  10000-2 0  9991
2 43693  85.0236 201.7228 0002921 173.0572 187.0730 15.57202139224809
PROXIMA I               
1 43694U 18088E   22327.69242363  .00007365  00000+0  25515-3 0  9993
2 43694  85.0318 206.7323 0012973 241.3092 118.6851 15.29568749224283
PROXIMA II              
1 43696U 18088G   22327.69571474  .00007336  00000+0  25451-3 0  9990
2 43696  85.0319 206.7567 0013047 241.2514 118.7421 15.29522217224270
FACSAT-1                
1 43721U 18096C   22327.95964925  .00024697  00000+0  54041-3 0  9990
2 43721  97.3393  48.2344 0011801 193.3900 252.3092 15.44058460222516
CENTAURI-2              
1 43722U 18096D   22327.79316236  .00042637  00000+0  72411-3 0  9994
2 43722  97.3438  51.2651 0010311 191.0752 169.0275 15.51293847222668
INNOSAT-2               
1 43738U 18096V   22327.95175912  .00537275  11734-3  15204-2 0  9996
2 43738  97.3468  62.9011 0007909 232.3926 217.1689 15.93360729223393
SIRION PATHFINDER-2     
1 43759U 18099B   22327.83184183  .00001170  00000+0  10647-3 0  9996
2 43759  97.6025  30.3286 0014983  86.9385 273.3551 14.96975517216880
CORVUS BC4              
1 43767U 18099K   22327.84955916  .00001887  00000+0  17133-3 0  9998
2 43767  97.5977  28.6175 0012885  93.5802 266.6894 14.96387702216808
MOVE-II                 
1 43780U 18099Y   22327.69173581  .00002892  00000+0  24172-3 0  9994
2 43780  97.6084  31.4049 0013111  92.6528 267.6196 14.99223086216907
SPACEBEE-7              
1 43816U 18099BL  22327.70057865  .00002522  00000+0  21352-3 0  9999
2 43816  97.6094  32.1269 0013073  79.0874 281.1820 14.98833508216494
SPACEBEE-5              
1 43817U 18099BM  22327.83124193  .00007794  00000+0  56002-3 0  9999
2 43817  97.6186  36.3657 0006029  79.8208 280.3697 15.04535459216705
SPACEBEE-6              
1 43818U 18099BN  22327.85854966  .00004239  00000+0  34094-3 0  9998
2 43818  97.6113  33.5239 0016622  84.4999 275.8120 15.00409919216729
